STARLINK-36816          
1 67891U 26035N   26082.25001157 -.01857902  00000+0 -16040-1 0  9991
2 67891  97.2853  15.4017 0001454 110.5342 258.5086 15.72454228  5835
STARLINK-36813          
1 67892U 26035P   26082.05780300  .00557270  00000+0  26973-2 0  9993
2 67892  97.2890  15.1962 0002783 110.3932 249.7635 15.81068003  5959
STARLINK-36803          
1 67893U 26035Q   26082.06231202  .00405882  00000+0  20068-2 0  9997
2 67893  97.2860  15.1933 0003153 111.2904 248.8701 15.80988206  5955
STARLINK-36846          
1 67894U 26035R   26081.77567518  .00268102  00000+0  17347-2 0  9995
2 67894  97.2862  14.8185 0002087 105.6302 254.5194 15.75293294  5902
STARLINK-36866          
1 67895U 26035S   26081.76790633  .00265814  00000+0  17201-2 0  9997
2 67895  97.2861  14.8282 0001901 121.1706 238.9746 15.75297627  5908
STARLINK-36877          
1 67896U 26035T   26082.18837178 -.00798571  00000+0 -48286-2 0  9991
2 67896  97.2885  15.3286 0002466  62.6728 297.4790 15.79573751  5970
STARLINK-36870          
1 67897U 26035U   26082.25001157  .00023849  00000+0  16080-3 0  9995
2 67897  97.2859  15.3793 0001530 113.2927 205.0089 15.75119011  5944
STARLINK-36810          
1 67898U 26035V   26082.26657799  .00328776  00000+0  21172-2 0  9990
2 67898  97.2855  15.3728 0000925  50.3636 309.7711 15.75234393  5983
STARLINK-36878          
1 67899U 26035W   26082.05705341  .00500580  00000+0  24451-2 0  9993
2 67899  97.2888  15.1985 0002210 104.2250 255.9264 15.81013250  5959
STARLINK-36361          
1 67900U 26035X   26082.05629860  .00544960  00000+0  26467-2 0  9996
2 67900  97.2879  15.2000 0003553 115.6616 244.5019 15.81024448  5957
STARLINK-36336          
1 67901U 26035Y   26082.26057406  .00423037  00000+0  26876-2 0  9996
2 67901  97.2851  15.3828 0000294 340.8150  19.3104 15.75284975  5983
STARLINK-36876          
1 67902U 26035Z   26082.25001157  .00077836  00000+0  51875-3 0  9998
2 67902  97.2853  15.4037 0001224 100.6064 269.6226 15.75155396  5944
