CCSDS_OMM_VERS = 2.0
CREATION_DATE  = 
ORIGINATOR     = 

OBJECT_NAME    = STARLINK-36816
OBJECT_ID      = 2026-035N
CENTER_NAME    = EARTH
REF_FRAME      = TEME
TIME_SYSTEM    = UTC
MEAN_ELEMENT_THEORY = SGP/SGP4

EPOCH          = 2026-03-23T06:00:00.999648
MEAN_MOTION    = 15.72454228
ECCENTRICITY   = .00014543
INCLINATION    = 97.2853
RA_OF_ASC_NODE = 15.4017
ARG_OF_PERICENTER = 110.5342
MEAN_ANOMALY   = 258.5086

EPHEMERIS_TYPE = 0
CLASSIFICATION_TYPE = U
NORAD_CAT_ID   = 67891
ELEMENT_SET_NO = 999
REV_AT_EPOCH   = 583
BSTAR          = -.16040154E-1
MEAN_MOTION_DOT = -.1857902E-1
MEAN_MOTION_DDOT = 0

CCSDS_OMM_VERS = 2.0
CREATION_DATE  = 
ORIGINATOR     = 

OBJECT_NAME    = STARLINK-36813
OBJECT_ID      = 2026-035P
CENTER_NAME    = EARTH
REF_FRAME      = TEME
TIME_SYSTEM    = UTC
MEAN_ELEMENT_THEORY = SGP/SGP4

EPOCH          = 2026-03-23T01:23:14.179200
MEAN_MOTION    = 15.81068003
ECCENTRICITY   = .00027832
INCLINATION    = 97.2890
RA_OF_ASC_NODE = 15.1962
ARG_OF_PERICENTER = 110.3932
MEAN_ANOMALY   = 249.7635

EPHEMERIS_TYPE = 0
CLASSIFICATION_TYPE = U
NORAD_CAT_ID   = 67892
ELEMENT_SET_NO = 999
REV_AT_EPOCH   = 595
BSTAR          = .2697328E-2
MEAN_MOTION_DOT = .55727E-2
MEAN_MOTION_DDOT = 0

CCSDS_OMM_VERS = 2.0
CREATION_DATE  = 
ORIGINATOR     = 

OBJECT_NAME    = STARLINK-36803
OBJECT_ID      = 2026-035Q
CENTER_NAME    = EARTH
REF_FRAME      = TEME
TIME_SYSTEM    = UTC
MEAN_ELEMENT_THEORY = SGP/SGP4

EPOCH          = 2026-03-23T01:29:43.758528
MEAN_MOTION    = 15.80988206
ECCENTRICITY   = .00031533
INCLINATION    = 97.2860
RA_OF_ASC_NODE = 15.1933
ARG_OF_PERICENTER = 111.2904
MEAN_ANOMALY   = 248.8701

EPHEMERIS_TYPE = 0
CLASSIFICATION_TYPE = U
NORAD_CAT_ID   = 67893
ELEMENT_SET_NO = 999
REV_AT_EPOCH   = 595
BSTAR          = .20068129E-2
MEAN_MOTION_DOT = .405882E-2
MEAN_MOTION_DDOT = 0

CCSDS_OMM_VERS = 2.0
CREATION_DATE  = 
ORIGINATOR     = 

OBJECT_NAME    = STARLINK-36846
OBJECT_ID      = 2026-035R
CENTER_NAME    = EARTH
REF_FRAME      = TEME
TIME_SYSTEM    = UTC
MEAN_ELEMENT_THEORY = SGP/SGP4

EPOCH          = 2026-03-22T18:36:58.335552
MEAN_MOTION    = 15.75293294
ECCENTRICITY   = .00020873
INCLINATION    = 97.2862
RA_OF_ASC_NODE = 14.8185
ARG_OF_PERICENTER = 105.6302
MEAN_ANOMALY   = 254.5194

EPHEMERIS_TYPE = 0
CLASSIFICATION_TYPE = U
NORAD_CAT_ID   = 67894
ELEMENT_SET_NO = 999
REV_AT_EPOCH   = 590
BSTAR          = .17347153E-2
MEAN_MOTION_DOT = .268102E-2
MEAN_MOTION_DDOT = 0

CCSDS_OMM_VERS = 2.0
CREATION_DATE  = 
ORIGINATOR     = 

OBJECT_NAME    = STARLINK-36866
OBJECT_ID      = 2026-035S
CENTER_NAME    = EARTH
REF_FRAME      = TEME
TIME_SYSTEM    = UTC
MEAN_ELEMENT_THEORY = SGP/SGP4

EPOCH          = 2026-03-22T18:25:47.106912
MEAN_MOTION    = 15.75297627
ECCENTRICITY   = .0001901
INCLINATION    = 97.2861
RA_OF_ASC_NODE = 14.8282
ARG_OF_PERICENTER = 121.1706
MEAN_ANOMALY   = 238.9746

EPHEMERIS_TYPE = 0
CLASSIFICATION_TYPE = U
NORAD_CAT_ID   = 67895
ELEMENT_SET_NO = 999
REV_AT_EPOCH   = 590
BSTAR          = .17200713E-2
MEAN_MOTION_DOT = .265814E-2
MEAN_MOTION_DDOT = 0

CCSDS_OMM_VERS = 2.0
CREATION_DATE  = 
ORIGINATOR     = 

OBJECT_NAME    = STARLINK-36877
OBJECT_ID      = 2026-035T
CENTER_NAME    = EARTH
REF_FRAME      = TEME
TIME_SYSTEM    = UTC
MEAN_ELEMENT_THEORY = SGP/SGP4

EPOCH          = 2026-03-23T04:31:15.321792
MEAN_MOTION    = 15.79573751
ECCENTRICITY   = .00024663
INCLINATION    = 97.2885
RA_OF_ASC_NODE = 15.3286
ARG_OF_PERICENTER = 62.6728
MEAN_ANOMALY   = 297.4790

EPHEMERIS_TYPE = 0
CLASSIFICATION_TYPE = U
NORAD_CAT_ID   = 67896
ELEMENT_SET_NO = 999
REV_AT_EPOCH   = 597
BSTAR          = -.48286386E-2
MEAN_MOTION_DOT = -.798571E-2
MEAN_MOTION_DDOT = 0

CCSDS_OMM_VERS = 2.0
CREATION_DATE  = 
ORIGINATOR     = 

OBJECT_NAME    = STARLINK-36870
OBJECT_ID      = 2026-035U
CENTER_NAME    = EARTH
REF_FRAME      = TEME
TIME_SYSTEM    = UTC
MEAN_ELEMENT_THEORY = SGP/SGP4

EPOCH          = 2026-03-23T06:00:00.999648
MEAN_MOTION    = 15.75119011
ECCENTRICITY   = .00015303
INCLINATION    = 97.2859
RA_OF_ASC_NODE = 15.3793
ARG_OF_PERICENTER = 113.2927
MEAN_ANOMALY   = 205.0089

EPHEMERIS_TYPE = 0
CLASSIFICATION_TYPE = U
NORAD_CAT_ID   = 67897
ELEMENT_SET_NO = 999
REV_AT_EPOCH   = 594
BSTAR          = .16080265E-3
MEAN_MOTION_DOT = .23849E-3
MEAN_MOTION_DDOT = 0

CCSDS_OMM_VERS = 2.0
CREATION_DATE  = 
ORIGINATOR     = 

OBJECT_NAME    = STARLINK-36810
OBJECT_ID      = 2026-035V
CENTER_NAME    = EARTH
REF_FRAME      = TEME
TIME_SYSTEM    = UTC
MEAN_ELEMENT_THEORY = SGP/SGP4

EPOCH          = 2026-03-23T06:23:52.338336
MEAN_MOTION    = 15.75234393
ECCENTRICITY   = .00009256
INCLINATION    = 97.2855
RA_OF_ASC_NODE = 15.3728
ARG_OF_PERICENTER = 50.3636
MEAN_ANOMALY   = 309.7711

EPHEMERIS_TYPE = 0
CLASSIFICATION_TYPE = U
NORAD_CAT_ID   = 67898
ELEMENT_SET_NO = 999
REV_AT_EPOCH   = 598
BSTAR          = .21172339E-2
MEAN_MOTION_DOT = .328776E-2
MEAN_MOTION_DDOT = 0

CCSDS_OMM_VERS = 2.0
CREATION_DATE  = 
ORIGINATOR     = 

OBJECT_NAME    = STARLINK-36878
OBJECT_ID      = 2026-035W
CENTER_NAME    = EARTH
REF_FRAME      = TEME
TIME_SYSTEM    = UTC
MEAN_ELEMENT_THEORY = SGP/SGP4

EPOCH          = 2026-03-23T01:22:09.414624
MEAN_MOTION    = 15.81013250
ECCENTRICITY   = .00022106
INCLINATION    = 97.2888
RA_OF_ASC_NODE = 15.1985
ARG_OF_PERICENTER = 104.2250
MEAN_ANOMALY   = 255.9264

EPHEMERIS_TYPE = 0
CLASSIFICATION_TYPE = U
NORAD_CAT_ID   = 67899
ELEMENT_SET_NO = 999
REV_AT_EPOCH   = 595
BSTAR          = .24450854E-2
MEAN_MOTION_DOT = .50058E-2
MEAN_MOTION_DDOT = 0

CCSDS_OMM_VERS = 2.0
CREATION_DATE  = 
ORIGINATOR     = 

OBJECT_NAME    = STARLINK-36361
OBJECT_ID      = 2026-035X
CENTER_NAME    = EARTH
REF_FRAME      = TEME
TIME_SYSTEM    = UTC
MEAN_ELEMENT_THEORY = SGP/SGP4

EPOCH          = 2026-03-23T01:21:04.199040
MEAN_MOTION    = 15.81024448
ECCENTRICITY   = .00035535
INCLINATION    = 97.2879
RA_OF_ASC_NODE = 15.2000
ARG_OF_PERICENTER = 115.6616
MEAN_ANOMALY   = 244.5019

EPHEMERIS_TYPE = 0
CLASSIFICATION_TYPE = U
NORAD_CAT_ID   = 67900
ELEMENT_SET_NO = 999
REV_AT_EPOCH   = 595
BSTAR          = .26467331E-2
MEAN_MOTION_DOT = .54496E-2
MEAN_MOTION_DDOT = 0

CCSDS_OMM_VERS = 2.0
CREATION_DATE  = 
ORIGINATOR     = 

OBJECT_NAME    = STARLINK-36336
OBJECT_ID      = 2026-035Y
CENTER_NAME    = EARTH
REF_FRAME      = TEME
TIME_SYSTEM    = UTC
MEAN_ELEMENT_THEORY = SGP/SGP4

EPOCH          = 2026-03-23T06:15:13.598784
MEAN_MOTION    = 15.75284975
ECCENTRICITY   = .00002941
INCLINATION    = 97.2851
RA_OF_ASC_NODE = 15.3828
ARG_OF_PERICENTER = 340.8150
MEAN_ANOMALY   = 19.3104

EPHEMERIS_TYPE = 0
CLASSIFICATION_TYPE = U
NORAD_CAT_ID   = 67901
ELEMENT_SET_NO = 999
REV_AT_EPOCH   = 598
BSTAR          = .26875645E-2
MEAN_MOTION_DOT = .423037E-2
MEAN_MOTION_DDOT = 0

CCSDS_OMM_VERS = 2.0
CREATION_DATE  = 
ORIGINATOR     = 

OBJECT_NAME    = STARLINK-36876
OBJECT_ID      = 2026-035Z
CENTER_NAME    = EARTH
REF_FRAME      = TEME
TIME_SYSTEM    = UTC
MEAN_ELEMENT_THEORY = SGP/SGP4

EPOCH          = 2026-03-23T06:00:00.999648
MEAN_MOTION    = 15.75155396
ECCENTRICITY   = .0001224
INCLINATION    = 97.2853
RA_OF_ASC_NODE = 15.4037
ARG_OF_PERICENTER = 100.6064
MEAN_ANOMALY   = 269.6226

EPHEMERIS_TYPE = 0
CLASSIFICATION_TYPE = U
NORAD_CAT_ID   = 67902
ELEMENT_SET_NO = 999
REV_AT_EPOCH   = 594
BSTAR          = .51874956E-3
MEAN_MOTION_DOT = .77836E-3
MEAN_MOTION_DDOT = 0

